[{"OBJECT_NAME":"JCSAT-3A","OBJECT_ID":"2006-033A","EPOCH":"2026-04-26T22:43:57.014688","MEAN_MOTION":1.00267835,"ECCENTRICITY":0.00021752,"INCLINATION":0.0122,"RA_OF_ASC_NODE":93.7404,"ARG_OF_PERICENTER":308.2615,"MEAN_ANOMALY":281.9273,"EPHEMERIS_TYPE":0,"CLASSIFICATION_TYPE":"U","NORAD_CAT_ID":29272,"ELEMENT_SET_NO":999,"REV_AT_EPOCH":4722,"BSTAR":0,"MEAN_MOTION_DOT":0,"MEAN_MOTION_DDOT":0},{"OBJECT_NAME":"KOREASAT 5 (MUGUNGWHA 5)","OBJECT_ID":"2006-034A","EPOCH":"2026-04-26T22:39:42.420672","MEAN_MOTION":1.00272162,"ECCENTRICITY":0.00016694,"INCLINATION":1.655,"RA_OF_ASC_NODE":83.5876,"ARG_OF_PERICENTER":341.0009,"MEAN_ANOMALY":243.3311,"EPHEMERIS_TYPE":0,"CLASSIFICATION_TYPE":"U","NORAD_CAT_ID":29349,"ELEMENT_SET_NO":999,"REV_AT_EPOCH":4080,"BSTAR":0,"MEAN_MOTION_DOT":-3.67e-6,"MEAN_MOTION_DDOT":0},{"OBJECT_NAME":"ZHONGXING-22A","OBJECT_ID":"2006-038A","EPOCH":"2026-04-26T11:07:24.069792","MEAN_MOTION":1.0008735,"ECCENTRICITY":6.56e-5,"INCLINATION":11.4031,"RA_OF_ASC_NODE":37.7861,"ARG_OF_PERICENTER":33.1232,"MEAN_ANOMALY":156.2844,"EPHEMERIS_TYPE":0,"CLASSIFICATION_TYPE":"U","NORAD_CAT_ID":29398,"ELEMENT_SET_NO":999,"REV_AT_EPOCH":7186,"BSTAR":0,"MEAN_MOTION_DOT":1.05e-6,"MEAN_MOTION_DDOT":0},{"OBJECT_NAME":"DIRECTV 9S","OBJECT_ID":"2006-043A","EPOCH":"2026-04-26T21:38:33.287424","MEAN_MOTION":1.00271679,"ECCENTRICITY":0.00042175,"INCLINATION":2.2904,"RA_OF_ASC_NODE":81.488,"ARG_OF_PERICENTER":329.8982,"MEAN_ANOMALY":26.945,"EPHEMERIS_TYPE":0,"CLASSIFICATION_TYPE":"U","NORAD_CAT_ID":29494,"ELEMENT_SET_NO":999,"REV_AT_EPOCH":5086,"BSTAR":0,"MEAN_MOTION_DOT":-1.22e-6,"MEAN_MOTION_DDOT":0},{"OBJECT_NAME":"OPTUS D1","OBJECT_ID":"2006-043B","EPOCH":"2026-04-26T21:08:06.207360","MEAN_MOTION":1.00271522,"ECCENTRICITY":0.00039206,"INCLINATION":2.9048,"RA_OF_ASC_NODE":80.2591,"ARG_OF_PERICENTER":314.8168,"MEAN_ANOMALY":288.8214,"EPHEMERIS_TYPE":0,"CLASSIFICATION_TYPE":"U","NORAD_CAT_ID":29495,"ELEMENT_SET_NO":999,"REV_AT_EPOCH":7160,"BSTAR":0,"MEAN_MOTION_DOT":-1.92e-6,"MEAN_MOTION_DDOT":0},{"OBJECT_NAME":"BADR-4","OBJECT_ID":"2006-051A","EPOCH":"2026-04-26T22:26:00.652992","MEAN_MOTION":1.00271847,"ECCENTRICITY":0.0005951,"INCLINATION":1.8746,"RA_OF_ASC_NODE":81.634,"ARG_OF_PERICENTER":300.2478,"MEAN_ANOMALY":195.8706,"EPHEMERIS_TYPE":0,"CLASSIFICATION_TYPE":"U","NORAD_CAT_ID":29526,"ELEMENT_SET_NO":999,"REV_AT_EPOCH":5075,"BSTAR":0,"MEAN_MOTION_DOT":1.36e-6,"MEAN_MOTION_DDOT":0},{"OBJECT_NAME":"WILDBLUE-1","OBJECT_ID":"2006-054A","EPOCH":"2026-04-26T21:35:41.061984","MEAN_MOTION":1.00272298,"ECCENTRICITY":0.00015888,"INCLINATION":2.6728,"RA_OF_ASC_NODE":81.1002,"ARG_OF_PERICENTER":309.0896,"MEAN_ANOMALY":37.4321,"EPHEMERIS_TYPE":0,"CLASSIFICATION_TYPE":"U","NORAD_CAT_ID":29643,"ELEMENT_SET_NO":999,"REV_AT_EPOCH":5327,"BSTAR":0,"MEAN_MOTION_DOT":-5.8e-7,"MEAN_MOTION_DDOT":0},{"OBJECT_NAME":"MEASAT-3","OBJECT_ID":"2006-056A","EPOCH":"2026-04-26T22:30:20.818944","MEAN_MOTION":0.99738877,"ECCENTRICITY":0.00041152,"INCLINATION":4.5996,"RA_OF_ASC_NODE":76.767,"ARG_OF_PERICENTER":245.5937,"MEAN_ANOMALY":310.65,"EPHEMERIS_TYPE":0,"CLASSIFICATION_TYPE":"U","NORAD_CAT_ID":29648,"ELEMENT_SET_NO":999,"REV_AT_EPOCH":4987,"BSTAR":0,"MEAN_MOTION_DOT":-3.6e-7,"MEAN_MOTION_DDOT":0},{"OBJECT_NAME":"SKYNET 5A","OBJECT_ID":"2007-007B","EPOCH":"2026-04-26T23:02:55.250880","MEAN_MOTION":1.00272901,"ECCENTRICITY":0.00040553,"INCLINATION":5.1718,"RA_OF_ASC_NODE":74.3459,"ARG_OF_PERICENTER":331.7336,"MEAN_ANOMALY":249.8497,"EPHEMERIS_TYPE":0,"CLASSIFICATION_TYPE":"U","NORAD_CAT_ID":30794,"ELEMENT_SET_NO":999,"REV_AT_EPOCH":7018,"BSTAR":0,"MEAN_MOTION_DOT":-2.79e-6,"MEAN_MOTION_DDOT":0},{"OBJECT_NAME":"ANIK F3","OBJECT_ID":"2007-009A","EPOCH":"2026-04-26T21:33:33.765408","MEAN_MOTION":1.00272374,"ECCENTRICITY":0.00027372,"INCLINATION":1.0665,"RA_OF_ASC_NODE":84.3936,"ARG_OF_PERICENTER":310.1772,"MEAN_ANOMALY":25.0013,"EPHEMERIS_TYPE":0,"CLASSIFICATION_TYPE":"U","NORAD_CAT_ID":31102,"ELEMENT_SET_NO":999,"REV_AT_EPOCH":4604,"BSTAR":0,"MEAN_MOTION_DOT":-1.1e-7,"MEAN_MOTION_DDOT":0},{"OBJECT_NAME":"ASTRA 1L","OBJECT_ID":"2007-016A","EPOCH":"2026-04-26T20:17:48.759072","MEAN_MOTION":1.00271488,"ECCENTRICITY":0.00047334,"INCLINATION":1.1908,"RA_OF_ASC_NODE":81.908,"ARG_OF_PERICENTER":329.2947,"MEAN_ANOMALY":83.5812,"EPHEMERIS_TYPE":0,"CLASSIFICATION_TYPE":"U","NORAD_CAT_ID":31306,"ELEMENT_SET_NO":999,"REV_AT_EPOCH":4447,"BSTAR":0,"MEAN_MOTION_DOT":-1.95e-6,"MEAN_MOTION_DDOT":0},{"OBJECT_NAME":"GALAXY 17 (G-17)","OBJECT_ID":"2007-016B","EPOCH":"2026-04-26T21:43:10.343712","MEAN_MOTION":1.00270906,"ECCENTRICITY":0.00043245,"INCLINATION":2.8445,"RA_OF_ASC_NODE":80.5181,"ARG_OF_PERICENTER":329.732,"MEAN_ANOMALY":45.4397,"EPHEMERIS_TYPE":0,"CLASSIFICATION_TYPE":"U","NORAD_CAT_ID":31307,"ELEMENT_SET_NO":999,"REV_AT_EPOCH":6929,"BSTAR":0,"MEAN_MOTION_DOT":-2.15e-6,"MEAN_MOTION_DDOT":0},{"OBJECT_NAME":"NIGCOMSAT 1","OBJECT_ID":"2007-018A","EPOCH":"2026-04-26T17:57:21.666816","MEAN_MOTION":1.002143,"ECCENTRICITY":0.0003082,"INCLINATION":11.7837,"RA_OF_ASC_NODE":33.2719,"ARG_OF_PERICENTER":98.4233,"MEAN_ANOMALY":87.0979,"EPHEMERIS_TYPE":0,"CLASSIFICATION_TYPE":"U","NORAD_CAT_ID":31395,"ELEMENT_SET_NO":999,"REV_AT_EPOCH":6954,"BSTAR":0,"MEAN_MOTION_DOT":-2.74e-6,"MEAN_MOTION_DDOT":0},{"OBJECT_NAME":"WGS F1 (USA 195)","OBJECT_ID":"2007-046A","EPOCH":"2026-04-26T20:12:34.262208","MEAN_MOTION":1.00270489,"ECCENTRICITY":6.516e-5,"INCLINATION":0.0744,"RA_OF_ASC_NODE":82.4154,"ARG_OF_PERICENTER":252.156,"MEAN_ANOMALY":140.9108,"EPHEMERIS_TYPE":0,"CLASSIFICATION_TYPE":"U","NORAD_CAT_ID":32258,"ELEMENT_SET_NO":999,"REV_AT_EPOCH":5182,"BSTAR":0,"MEAN_MOTION_DOT":-2.78e-6,"MEAN_MOTION_DDOT":0},{"OBJECT_NAME":"SKYNET 5B","OBJECT_ID":"2007-056B","EPOCH":"2026-04-26T22:24:58.584096","MEAN_MOTION":1.00269265,"ECCENTRICITY":0.00039627,"INCLINATION":5.1234,"RA_OF_ASC_NODE":74.0972,"ARG_OF_PERICENTER":314.1312,"MEAN_ANOMALY":188.0432,"EPHEMERIS_TYPE":0,"CLASSIFICATION_TYPE":"U","NORAD_CAT_ID":32294,"ELEMENT_SET_NO":999,"REV_AT_EPOCH":6768,"BSTAR":0,"MEAN_MOTION_DOT":1.33e-6,"MEAN_MOTION_DDOT":0},{"OBJECT_NAME":"ASTRA 4A","OBJECT_ID":"2007-057A","EPOCH":"2026-04-26T22:08:45.389184","MEAN_MOTION":1.00272456,"ECCENTRICITY":0.00024748,"INCLINATION":0.0226,"RA_OF_ASC_NODE":353.6281,"ARG_OF_PERICENTER":34.7754,"MEAN_ANOMALY":163.5054,"EPHEMERIS_TYPE":0,"CLASSIFICATION_TYPE":"U","NORAD_CAT_ID":32299,"ELEMENT_SET_NO":999,"REV_AT_EPOCH":5113,"BSTAR":0,"MEAN_MOTION_DOT":2.1e-7,"MEAN_MOTION_DDOT":0},{"OBJECT_NAME":"HORIZONS-2","OBJECT_ID":"2007-063B","EPOCH":"2026-04-26T21:46:25.032288","MEAN_MOTION":1.0027248,"ECCENTRICITY":0.00034512,"INCLINATION":2.4719,"RA_OF_ASC_NODE":81.228,"ARG_OF_PERICENTER":322.2571,"MEAN_ANOMALY":64.2293,"EPHEMERIS_TYPE":0,"CLASSIFICATION_TYPE":"U","NORAD_CAT_ID":32388,"ELEMENT_SET_NO":999,"REV_AT_EPOCH":6730,"BSTAR":0,"MEAN_MOTION_DOT":-2.62e-6,"MEAN_MOTION_DDOT":0},{"OBJECT_NAME":"THURAYA-3","OBJECT_ID":"2008-001A","EPOCH":"2026-04-26T22:29:05.063424","MEAN_MOTION":1.00271635,"ECCENTRICITY":0.00022672,"INCLINATION":5.9059,"RA_OF_ASC_NODE":35.7236,"ARG_OF_PERICENTER":354.8956,"MEAN_ANOMALY":260.0726,"EPHEMERIS_TYPE":0,"CLASSIFICATION_TYPE":"U","NORAD_CAT_ID":32404,"ELEMENT_SET_NO":999,"REV_AT_EPOCH":6697,"BSTAR":0,"MEAN_MOTION_DOT":-3.1e-6,"MEAN_MOTION_DDOT":0},{"OBJECT_NAME":"EXPRESS-AM33","OBJECT_ID":"2008-003A","EPOCH":"2026-04-26T22:24:58.592736","MEAN_MOTION":1.00197522,"ECCENTRICITY":0.00130589,"INCLINATION":4.6725,"RA_OF_ASC_NODE":75.9327,"ARG_OF_PERICENTER":178.9846,"MEAN_ANOMALY":321.6882,"EPHEMERIS_TYPE":0,"CLASSIFICATION_TYPE":"U","NORAD_CAT_ID":32478,"ELEMENT_SET_NO":999,"REV_AT_EPOCH":5322,"BSTAR":0,"MEAN_MOTION_DOT":1.28e-6,"MEAN_MOTION_DDOT":0},{"OBJECT_NAME":"THOR 5","OBJECT_ID":"2008-006A","EPOCH":"2026-04-26T22:07:15.533184","MEAN_MOTION":1.00273346,"ECCENTRICITY":0.00025919,"INCLINATION":0.0222,"RA_OF_ASC_NODE":248.6831,"ARG_OF_PERICENTER":153.8885,"MEAN_ANOMALY":143.4151,"EPHEMERIS_TYPE":0,"CLASSIFICATION_TYPE":"U","NORAD_CAT_ID":32487,"ELEMENT_SET_NO":999,"REV_AT_EPOCH":6680,"BSTAR":0,"MEAN_MOTION_DOT":-2.0e-7,"MEAN_MOTION_DDOT":0},{"OBJECT_NAME":"KIZUNA (WINDS)","OBJECT_ID":"2008-007A","EPOCH":"2026-04-26T15:16:23.208672","MEAN_MOTION":1.00292146,"ECCENTRICITY":3.485e-5,"INCLINATION":8.4084,"RA_OF_ASC_NODE":62.7369,"ARG_OF_PERICENTER":71.7237,"MEAN_ANOMALY":308.4287,"EPHEMERIS_TYPE":0,"CLASSIFICATION_TYPE":"U","NORAD_CAT_ID":32500,"ELEMENT_SET_NO":999,"REV_AT_EPOCH":6638,"BSTAR":0,"MEAN_MOTION_DOT":-1.8e-7,"MEAN_MOTION_DDOT":0},{"OBJECT_NAME":"DIRECTV 11","OBJECT_ID":"2008-013A","EPOCH":"2026-04-26T21:39:10.727136","MEAN_MOTION":1.00271509,"ECCENTRICITY":3.067e-5,"INCLINATION":0.0135,"RA_OF_ASC_NODE":110.7603,"ARG_OF_PERICENTER":252.2021,"MEAN_ANOMALY":77.5357,"EPHEMERIS_TYPE":0,"CLASSIFICATION_TYPE":"U","NORAD_CAT_ID":32729,"ELEMENT_SET_NO":999,"REV_AT_EPOCH":4507,"BSTAR":0,"MEAN_MOTION_DOT":-1.37e-6,"MEAN_MOTION_DDOT":0},{"OBJECT_NAME":"ICO G1","OBJECT_ID":"2008-016A","EPOCH":"2026-04-26T19:58:13.137600","MEAN_MOTION":1.00272588,"ECCENTRICITY":0.00024231,"INCLINATION":5.5198,"RA_OF_ASC_NODE":36.2423,"ARG_OF_PERICENTER":347.1307,"MEAN_ANOMALY":38.1664,"EPHEMERIS_TYPE":0,"CLASSIFICATION_TYPE":"U","NORAD_CAT_ID":32763,"ELEMENT_SET_NO":999,"REV_AT_EPOCH":6603,"BSTAR":0,"MEAN_MOTION_DOT":-1.81e-6,"MEAN_MOTION_DDOT":0},{"OBJECT_NAME":"VINASAT-1","OBJECT_ID":"2008-018A","EPOCH":"2026-04-26T22:45:04.406688","MEAN_MOTION":1.00271649,"ECCENTRICITY":0.00021666,"INCLINATION":0.0056,"RA_OF_ASC_NODE":295.4294,"ARG_OF_PERICENTER":128.132,"MEAN_ANOMALY":264.5993,"EPHEMERIS_TYPE":0,"CLASSIFICATION_TYPE":"U","NORAD_CAT_ID":32767,"ELEMENT_SET_NO":999,"REV_AT_EPOCH":6607,"BSTAR":0,"MEAN_MOTION_DOT":-3.39e-6,"MEAN_MOTION_DDOT":0}]
